ONEWEB-0661             
1 55821U 23029AB  24009.34462996  .00000122  00000+0  29343-3 0  9993
2 55821  87.8989 106.8672 0001800 124.6798 235.4501 13.14504746 42481
ONEWEB-0662             
1 55822U 23029AC  24009.30340364 -.00000113  00000+0 -34030-3 0  9995
2 55822  87.8986 106.8837 0002023 116.9425 243.1912 13.14504007 42528
ONEWEB-0663             
1 55823U 23029AD  24009.58578326 -.00000011  00000+0 -60187-4 0  9997
2 55823  87.9195  91.5494 0002101 116.1149 244.0200 13.20773794 43713
ONEWEB-0664             
1 55824U 23029AE  24009.27643903  .00000058  00000+0  10968-3 0  9998
2 55824  87.9196  91.6228 0001427 120.0000 240.1275 13.20770660 43674
ONEWEB-0665             
1 55825U 23029AF  24009.79817433  .00000163  00000+0  40629-3 0  9991
2 55825  87.8988 106.7523 0001896 119.1357 240.9963 13.14501520 43259
ONEWEB-0666             
1 55826U 23029AG  24009.27012025  .00000107  00000+0  23177-3 0  9996
2 55826  87.9195  91.6156 0001567  88.7159 271.4153 13.20769298 43683
ONEWEB-0667             
1 55827U 23029AH  24009.71835054  .00000037  00000+0  60060-4 0  9996
2 55827  87.9194  91.4602 0001749 116.4911 243.6401 13.20770564 44411
ONEWEB-0669             
1 55828U 23029AJ  24009.25907080  .00000105  00000+0  22511-3 0  9999
2 55828  87.9194  91.5904 0000959  92.9622 267.1621 13.20770091 43674
